{
  "type": "FeatureCollection",
  "features": [
    {
      "type": "Feature",
      "properties": {
        "norad_id": 66383,
        "name": "STARLINK-35690",
        "group": "last-30-days",
        "lat": 41.64879012305605,
        "lon": 63.304569926450576,
        "alt_km": 440.69219872665417,
        "timestamp": "2025-12-08T08:58:59.555267+00:00",
        "meta_object_name": "STARLINK-35690",
        "meta_object_id": "2025-257D",
        "meta_epoch": "2025-12-07T13:45:12.416832",
        "meta_mean_motion": 15.3962701,
        "meta_eccentricity": 0.00010275,
        "meta_inclination": 53.1615,
        "meta_ra_of_asc_node": 288.8969,
        "meta_arg_of_pericenter": 108.0058,
        "meta_mean_anomaly": 252.1059,
        "meta_ephemeris_type": 0,
        "meta_classification_type": "U",
        "meta_norad_cat_id": 66383,
        "meta_element_set_no": 999,
        "meta_rev_at_epoch": 557,
        "meta_bstar": 0.0018607579,
        "meta_mean_motion_dot": 0.00074779,
        "meta_mean_motion_ddot": 0,
        "tle_line1": "1 66383U 25257D   25341.57306038  .00074779  00000+0  18608-2 0  9992",
        "tle_line2": "2 66383  53.1615 288.8969 0001027 108.0058 252.1059 15.39627010  5576"
      },
      "geometry": {
        "type": "Point",
        "coordinates": [
          63.304569926450576,
          41.64879012305605
        ]
      }
    },
    {
      "type": "Feature",
      "properties": {
        "norad_id": 66384,
        "name": "STARLINK-35662",
        "group": "last-30-days",
        "lat": 40.54562282451618,
        "lon": 65.21839883652974,
        "alt_km": 440.57950659060407,
        "timestamp": "2025-12-08T08:58:59.555278+00:00",
        "meta_object_name": "STARLINK-35662",
        "meta_object_id": "2025-257E",
        "meta_epoch": "2025-12-07T19:58:38.215200",
        "meta_mean_motion": 15.39655953,
        "meta_eccentricity": 0.00018124,
        "meta_inclination": 53.1562,
        "meta_ra_of_asc_node": 287.6724,
        "meta_arg_of_pericenter": 87.4795,
        "meta_mean_anomaly": 272.6417,
        "meta_ephemeris_type": 0,
        "meta_classification_type": "U",
        "meta_norad_cat_id": 66384,
        "meta_element_set_no": 999,
        "meta_rev_at_epoch": 561,
        "meta_bstar": 0.0018478528,
        "meta_mean_motion_dot": 0.00074326,
        "meta_mean_motion_ddot": 0,
        "tle_line1": "1 66384U 25257E   25341.83238675  .00074326  00000+0  18479-2 0  9997",
        "tle_line2": "2 66384  53.1562 287.6724 0001812  87.4795 272.6417 15.39655953  5611"
      },
      "geometry": {
        "type": "Point",
        "coordinates": [
          65.21839883652974,
          40.54562282451618
        ]
      }
    },
    {
      "type": "Feature",
      "properties": {
        "norad_id": 66385,
        "name": "STARLINK-35659",
        "group": "last-30-days",
        "lat": 52.01125034249676,
        "lon": 31.451000431359777,
        "alt_km": 438.7495361845695,
        "timestamp": "2025-12-08T08:58:59.555289+00:00",
        "meta_object_name": "STARLINK-35659",
        "meta_object_id": "2025-257F",
        "meta_epoch": "2025-12-07T13:51:25.241472",
        "meta_mean_motion": 15.39642413,
        "meta_eccentricity": 0.00015924,
        "meta_inclination": 53.1625,
        "meta_ra_of_asc_node": 288.9256,
        "meta_arg_of_pericenter": 84.5519,
        "meta_mean_anomaly": 275.5668,
        "meta_ephemeris_type": 0,
        "meta_classification_type": "U",
        "meta_norad_cat_id": 66385,
        "meta_element_set_no": 999,
        "meta_rev_at_epoch": 557,
        "meta_bstar": 0.0019773703,
        "meta_mean_motion_dot": 0.00079582,
        "meta_mean_motion_ddot": 0,
        "tle_line1": "1 66385U 25257F   25341.57737548  .00079582  00000+0  19774-2 0  9990",
        "tle_line2": "2 66385  53.1625 288.9256 0001592  84.5519 275.5668 15.39642413  5575"
      },
      "geometry": {
        "type": "Point",
        "coordinates": [
          31.451000431359777,
          52.01125034249676
        ]
      }
    },
    {
      "type": "Feature",
      "properties": {
        "norad_id": 66386,
        "name": "STARLINK-35651",
        "group": "last-30-days",
        "lat": 23.99909213490924,
        "lon": 85.5712303202998,
        "alt_km": 444.19477105570786,
        "timestamp": "2025-12-08T08:58:59.555329+00:00",
        "meta_object_name": "STARLINK-35651",
        "meta_object_id": "2025-257G",
        "meta_epoch": "2025-12-08T00:00:04.000320",
        "meta_mean_motion": 15.39572087,
        "meta_eccentricity": 8.984e-05,
        "meta_inclination": 53.1599,
        "meta_ra_of_asc_node": 286.8336,
        "meta_arg_of_pericenter": 105.9394,
        "meta_mean_anomaly": 127.9474,
        "meta_ephemeris_type": 0,
        "meta_classification_type": "U",
        "meta_norad_cat_id": 66386,
        "meta_element_set_no": 999,
        "meta_rev_at_epoch": 573,
        "meta_bstar": 0.00061419603,
        "meta_mean_motion_dot": 0.00024207,
        "meta_mean_motion_ddot": 0,
        "tle_line1": "1 66386U 25257G   25342.00004630  .00024207  00000+0  61420-3 0  9999",
        "tle_line2": "2 66386  53.1599 286.8336 0000898 105.9394 127.9474 15.39572087  5731"
      },
      "geometry": {
        "type": "Point",
        "coordinates": [
          85.5712303202998,
          23.99909213490924
        ]
      }
    },
    {
      "type": "Feature",
      "properties": {
        "norad_id": 66387,
        "name": "STARLINK-35661",
        "group": "last-30-days",
        "lat": 22.626082092114665,
        "lon": 86.85794106003081,
        "alt_km": 444.328821153822,
        "timestamp": "2025-12-08T08:58:59.555341+00:00",
        "meta_object_name": "STARLINK-35661",
        "meta_object_id": "2025-257H",
        "meta_epoch": "2025-12-08T00:00:04.000320",
        "meta_mean_motion": 15.39605272,
        "meta_eccentricity": 0.0001315,
        "meta_inclination": 53.1601,
        "meta_ra_of_asc_node": 286.8304,
        "meta_arg_of_pericenter": 90.9253,
        "meta_mean_anomaly": 144.727,
        "meta_ephemeris_type": 0,
        "meta_classification_type": "U",
        "meta_norad_cat_id": 66387,
        "meta_element_set_no": 999,
        "meta_rev_at_epoch": 573,
        "meta_bstar": 0.00038899903,
        "meta_mean_motion_dot": 0.00015184,
        "meta_mean_motion_ddot": 0,
        "tle_line1": "1 66387U 25257H   25342.00004630  .00015184  00000+0  38900-3 0  9991",
        "tle_line2": "2 66387  53.1601 286.8304 0001315  90.9253 144.7270 15.39605272  5737"
      },
      "geometry": {
        "type": "Point",
        "coordinates": [
          86.85794106003081,
          22.626082092114665
        ]
      }
    },
    {
      "type": "Feature",
      "properties": {
        "norad_id": 66388,
        "name": "STARLINK-35647",
        "group": "last-30-days",
        "lat": 3.842439133117542,
        "lon": 102.13224217797266,
        "alt_km": 447.5333281489184,
        "timestamp": "2025-12-08T08:58:59.555352+00:00",
        "meta_object_name": "STARLINK-35647",
        "meta_object_id": "2025-257J",
        "meta_epoch": "2025-12-08T00:00:04.000320",
        "meta_mean_motion": 15.39603685,
        "meta_eccentricity": 0.00011374,
        "meta_inclination": 53.1598,
        "meta_ra_of_asc_node": 286.7825,
        "meta_arg_of_pericenter": 91.1099,
        "meta_mean_anomaly": 168.4641,
        "meta_ephemeris_type": 0,
        "meta_classification_type": "U",
        "meta_norad_cat_id": 66388,
        "meta_element_set_no": 999,
        "meta_rev_at_epoch": 573,
        "meta_bstar": 0.00041420484,
        "meta_mean_motion_dot": 0.00016195,
        "meta_mean_motion_ddot": 0,
        "tle_line1": "1 66388U 25257J   25342.00004630  .00016195  00000+0  41420-3 0  9996",
        "tle_line2": "2 66388  53.1598 286.7825 0001137  91.1099 168.4641 15.39603685  5734"
      },
      "geometry": {
        "type": "Point",
        "coordinates": [
          102.13224217797266,
          3.842439133117542
        ]
      }
    },
    {
      "type": "Feature",
      "properties": {
        "norad_id": 66389,
        "name": "STARLINK-35694",
        "group": "last-30-days",
        "lat": -18.05468038807876,
        "lon": 119.10853507089958,
        "alt_km": 450.53161820002333,
        "timestamp": "2025-12-08T08:58:59.555364+00:00",
        "meta_object_name": "STARLINK-35694",
        "meta_object_id": "2025-257K",
        "meta_epoch": "2025-12-08T00:00:04.000320",
        "meta_mean_motion": 15.39596037,
        "meta_eccentricity": 0.00011999,
        "meta_inclination": 53.1591,
        "meta_ra_of_asc_node": 286.7263,
        "meta_arg_of_pericenter": 85.7788,
        "meta_mean_anomaly": 201.404,
        "meta_ephemeris_type": 0,
        "meta_classification_type": "U",
        "meta_norad_cat_id": 66389,
        "meta_element_set_no": 999,
        "meta_rev_at_epoch": 573,
        "meta_bstar": 0.0004258981,
        "meta_mean_motion_dot": 0.0001666,
        "meta_mean_motion_ddot": 0,
        "tle_line1": "1 66389U 25257K   25342.00004630  .00016660  00000+0  42590-3 0  9993",
        "tle_line2": "2 66389  53.1591 286.7263 0001199  85.7788 201.4040 15.39596037  5739"
      },
      "geometry": {
        "type": "Point",
        "coordinates": [
          119.10853507089958,
          -18.05468038807876
        ]
      }
    }
  ]
}